[{"OBJECT_NAME":"STARLINK-32603","OBJECT_ID":"2024-217R","EPOCH":"2026-03-09T14:03:34.630272","MEAN_MOTION":15.30195162,"ECCENTRICITY":0.0001028,"INCLINATION":53.1591,"RA_OF_ASC_NODE":194.5036,"ARG_OF_PERICENTER":114.8827,"MEAN_ANOMALY":245.2281,"EPHEMERIS_TYPE":0,"CLASSIFICATION_TYPE":"U","NORAD_CAT_ID":62072,"ELEMENT_SET_NO":999,"REV_AT_EPOCH":7345,"BSTAR":0.0018575,"MEAN_MOTION_DOT":0.00055056,"MEAN_MOTION_DDOT":0},{"OBJECT_NAME":"SPACEMOBILE-001 DEB","OBJECT_ID":"2024-163F","EPOCH":"2026-03-09T07:17:56.452704","MEAN_MOTION":15.32884299,"ECCENTRICITY":0.00071876,"INCLINATION":52.9956,"RA_OF_ASC_NODE":27.518,"ARG_OF_PERICENTER":196.7865,"MEAN_ANOMALY":163.2898,"EPHEMERIS_TYPE":0,"CLASSIFICATION_TYPE":"U","NORAD_CAT_ID":62369,"ELEMENT_SET_NO":999,"REV_AT_EPOCH":7117,"BSTAR":0.00044817004,"MEAN_MOTION_DOT":0.00014099,"MEAN_MOTION_DDOT":0}]
